[
    {
        "Altitude(m)": 612513.9573035606,
        "Argument of Periapsis(deg)": 0.0,
        "Eccentricity": 0.0,
        "Inclination(deg)": 60.0,
        "Latitude(deg)": -28.136046393620116,
        "Longitude(deg)": -57.08685787930096,
        "Mean Anomaly(deg)": -147.27269999999996,
        "RAAN(deg)": 205.0,
        "Satellite Name": "Test1 915",
        "Satellite Number": 915,
        "Semi-Major Axis(m)": 6980739.136638005,
        "Time(s)": 0
    },
    {
        "Altitude(m)": 612708.3254802495,
        "Argument of Periapsis(deg)": 0.00010418945913296404,
        "Eccentricity": 0.0,
        "Inclination(deg)": 60.0,
        "Latitude(deg)": -28.647785222925883,
        "Longitude(deg)": -56.729626635095656,
        "Mean Anomaly(deg)": -146.65259385453817,
        "RAAN(deg)": 204.99957995086024,
        "Satellite Name": "Test1 915",
        "Satellite Number": 915,
        "Semi-Major Axis(m)": 6980739.136638005,
        "Time(s)": 10
    }
]